OBJECT_NAME,OBJECT_ID,EPOCH,MEAN_MOTION,ECCENTRICITY,INCLINATION,RA_OF_ASC_NODE,ARG_OF_PERICENTER,MEAN_ANOMALY,EPHEMERIS_TYPE,CLASSIFICATION_TYPE,NORAD_CAT_ID,ELEMENT_SET_NO,REV_AT_EPOCH,BSTAR,MEAN_MOTION_DOT,MEAN_MOTION_DDOT
TIANMU-1 20,2023-208B,2026-07-14T14:37:53.269248,15.33159058,.00062799,97.4471,312.7236,214.3306,145.7532,0,U,58661,999,14162,.14953909E-3,.4712E-4,0
TIANMU-1 21,2023-208C,2026-07-14T14:54:33.746688,15.35545371,.00066298,97.4531,315.5362,206.2502,153.8406,0,U,58662,999,14177,.16372269E-3,.5576E-4,0
TIANMU-1 22,2023-208D,2026-07-14T14:01:33.627072,15.31421685,.00026985,97.4524,311.9466,221.0864,139.0174,0,U,58663,999,14152,.14259763E-3,.4248E-4,0
TIANMU-1 15,2024-004A,2026-07-14T14:57:05.845248,15.26910233,.0006011,97.4666,21.8136,230.8724,129.1980,0,U,58700,999,13996,.11796592E-3,.3043E-4,0
TIANMU-1 16,2024-004B,2026-07-14T14:41:59.065152,15.27013758,.00044237,97.4614,21.0200,248.5225,111.5543,0,U,58701,999,13996,.11738389E-3,.3037E-4,0
TIANMU-1 17,2024-004C,2026-07-14T14:21:04.656384,15.27011691,.00039027,97.4640,21.5005,255.1213,104.9594,0,U,58702,999,13995,.12232206E-3,.3168E-4,0
TIANMU-1 18,2024-004D,2026-07-14T13:46:35.790240,15.26926464,.00037093,97.4658,21.7392,227.6137,132.4789,0,U,58703,999,13995,.11618737E-3,.2997E-4,0
INSAT-3DS,2024-033A,2026-07-14T13:48:27.309312,1.00270944,.00010489,0.0931,264.8365,225.6738,91.1082,0,U,58990,999,4734,0,-.163E-5,0
METEOR-M2 4,2024-039A,2026-07-14T14:48:11.098368,14.22432104,.00082543,98.7025,154.5723,90.1828,270.0295,0,U,59051,999,12316,.1333401E-4,-.14E-6,0
GOES 19,2024-119A,2026-07-14T13:03:31.422816,1.00271595,.00004361,0.0031,131.3626,84.4967,197.2282,0,U,60133,999,723,0,-.256E-5,0
MTG-S1,2025-143A,2026-07-14T13:24:51.876864,1.00273373,.00034744,0.5848,344.9295,261.8054,246.4891,0,U,64723,999,369,0,-.15E-6,0
METOP-SGA1,2025-172A,2026-07-14T14:57:49.205088,14.19819117,.00071041,98.6631,254.7710,333.7678,26.3138,0,U,65159,999,4768,.29063939E-4,.18E-6,0
FENGYUN 3H,2025-219A,2026-07-14T10:51:24.944256,14.19924733,.00011731,98.6771,135.6921,63.0052,297.1244,0,U,65815,999,4125,.22075746E-4,.4E-7,0
