TIANMU-1 20             
1 58661U 23208B   26195.60964432  .00004712  00000+0  14954-3 0  9997
2 58661  97.4471 312.7236 0006279 214.3306 145.7532 15.33159058141628
TIANMU-1 21             
1 58662U 23208C   26195.62122392  .00005576  00000+0  16372-3 0  9996
2 58662  97.4531 315.5362 0006629 206.2502 153.8406 15.35545371141779
TIANMU-1 22             
1 58663U 23208D   26195.58441698  .00004248  00000+0  14260-3 0  9994
2 58663  97.4524 311.9466 0002698 221.0864 139.0174 15.31421685141523
TIANMU-1 15             
1 58700U 24004A   26195.62298432  .00003043  00000+0  11797-3 0  9996
2 58700  97.4666  21.8136 0006011 230.8724 129.1980 15.26910233139965
TIANMU-1 16             
1 58701U 24004B   26195.61248918  .00003037  00000+0  11738-3 0  9998
2 58701  97.4614  21.0200 0004423 248.5225 111.5543 15.27013758139967
TIANMU-1 17             
1 58702U 24004C   26195.59797056  .00003168  00000+0  12232-3 0  9993
2 58702  97.4640  21.5005 0003902 255.1213 104.9594 15.27011691139952
TIANMU-1 18             
1 58703U 24004D   26195.57402535  .00002997  00000+0  11619-3 0  9994
2 58703  97.4658  21.7392 0003709 227.6137 132.4789 15.26926464139951
INSAT-3DS               
1 58990U 24033A   26195.57531608 -.00000163  00000+0  00000+0 0  9990
2 58990   0.0931 264.8365 0001048 225.6738  91.1082  1.00270944 47342
METEOR-M2 4             
1 59051U 24039A   26195.61679512 -.00000014  00000+0  13334-4 0  9991
2 59051  98.7025 154.5723 0008254  90.1828 270.0295 14.22432104123168
GOES 19                 
1 60133U 24119A   26195.54411369 -.00000256  00000+0  00000+0 0  9998
2 60133   0.0031 131.3626 0000436  84.4967 197.2282  1.00271595  7235
MTG-S1                  
1 64723U 25143A   26195.55893376 -.00000015  00000+0  00000+0 0  9991
2 64723   0.5848 344.9295 0003474 261.8054 246.4891  1.00273373  3697
METOP-SGA1              
1 65159U 25172A   26195.62348617  .00000018  00000+0  29064-4 0  9996
2 65159  98.6631 254.7710 0007104 333.7678  26.3138 14.19819117 47686
FENGYUN 3H              
1 65815U 25219A   26195.45237204  .00000004  00000+0  22076-4 0  9998
2 65815  98.6771 135.6921 0001173  63.0052 297.1244 14.19924733 41254
